{"type": "FeatureCollection", "features": [ {"type": "Feature", "properties": {"norad_id": 47068, "name": "COSMOS 2251 DEB", "group": "cosmos-2251-debris", "lat": 74.01372880633039, "lon": -62.77478932518972, "alt_km": 719.9191852014137, "timestamp": "2025-12-10T18:57:00.463651+00:00", "meta": {"OBJECT_NAME": "COSMOS 2251 DEB", "OBJECT_ID": "1993-036BXY", "EPOCH": "2025-12-10T08:37:23.907936", "MEAN_MOTION": 14.53124588, "ECCENTRICITY": 0.0018387, "INCLINATION": 74.0237, "RA_OF_ASC_NODE": 207.9647, "ARG_OF_PERICENTER": 295.1149, "MEAN_ANOMALY": 64.8105, "EPHEMERIS_TYPE": 0, "CLASSIFICATION_TYPE": "U", "NORAD_CAT_ID": 47068, "ELEMENT_SET_NO": 999, "REV_AT_EPOCH": 61722, "BSTAR": 0.0012343, "MEAN_MOTION_DOT": 5.094e-05, "MEAN_MOTION_DDOT": 0}, "tle": {"line1": "1 47068U 93036BXY 25344.35930449  .00005094  00000+0  12343-2 0  9993", "line2": "2 47068  74.0237 207.9647 0018387 295.1149  64.8105 14.53124588617226"}}, "geometry": {"type": "Point", "coordinates": [-62.77478932518972, 74.01372880633039]}}, {"type": "Feature", "properties": {"norad_id": 47073, "name": "COSMOS 2251 DEB", "group": "cosmos-2251-debris", "lat": -50.29802773016867, "lon": 45.344371900373595, "alt_km": 768.0913264772144, "timestamp": "2025-12-10T18:57:00.463662+00:00", "meta": {"OBJECT_NAME": "COSMOS 2251 DEB", "OBJECT_ID": "1993-036BYD", "EPOCH": "2025-11-28T23:48:38.837952", "MEAN_MOTION": 14.04684181, "ECCENTRICITY": 0.01626495, "INCLINATION": 74.0833, "RA_OF_ASC_NODE": 225.7586, "ARG_OF_PERICENTER": 267.1836, "MEAN_ANOMALY": 91.0675, "EPHEMERIS_TYPE": 0, "CLASSIFICATION_TYPE": "U", "NORAD_CAT_ID": 47073, "ELEMENT_SET_NO": 999, "REV_AT_EPOCH": 60168, "BSTAR": 0.0003803633, "MEAN_MOTION_DOT": 6.6e-06, "MEAN_MOTION_DDOT": 0}, "tle": {"line1": "1 47073U 93036BYD 25332.99211618  .00000660  00000+0  38036-3 0  9998", "line2": "2 47073  74.0833 225.7586 0162649 267.1836  91.0675 14.04684181601680"}}, "geometry": {"type": "Point", "coordinates": [45.344371900373595, -50.29802773016867]}}, {"type": "Feature", "properties": {"norad_id": 47074, "name": "COSMOS 2251 DEB", "group": "cosmos-2251-debris", "lat": 10.059458480025393, "lon": 129.37971194622025, "alt_km": 876.2372122398874, "timestamp": "2025-12-10T18:57:00.463673+00:00", "meta": {"OBJECT_NAME": "COSMOS 2251 DEB", "OBJECT_ID": "1993-036BYE", "EPOCH": "2025-12-08T16:49:34.505184", "MEAN_MOTION": 14.3557053, "ECCENTRICITY": 0.01448795, "INCLINATION": 74.0911, "RA_OF_ASC_NODE": 316.0985, "ARG_OF_PERICENTER": 343.8802, "MEAN_ANOMALY": 196.5757, "EPHEMERIS_TYPE": 0, "CLASSIFICATION_TYPE": "U", "NORAD_CAT_ID": 47074, "ELEMENT_SET_NO": 999, "REV_AT_EPOCH": 2624, "BSTAR": 0.0031554894, "MEAN_MOTION_DOT": 0.00010228, "MEAN_MOTION_DDOT": 0}, "tle": {"line1": "1 47074U 93036BYE 25342.70109381  .00010228  00000+0  31555-2 0  9991", "line2": "2 47074  74.0911 316.0985 0144879 343.8802 196.5757 14.35570530 26246"}}, "geometry": {"type": "Point", "coordinates": [129.37971194622025, 10.059458480025393]}}, {"type": "Feature", "properties": {"norad_id": 47116, "name": "COSMOS 2251 DEB", "group": "cosmos-2251-debris", "lat": -62.06214689693947, "lon": -148.00772651224943, "alt_km": 569.1826558877046, "timestamp": "2025-12-10T18:57:00.463685+00:00", "meta": {"OBJECT_NAME": "COSMOS 2251 DEB", "OBJECT_ID": "1993-036BYJ", "EPOCH": "2025-11-28T02:40:22.126944", "MEAN_MOTION": 14.97052334, "ECCENTRICITY": 0.00224176, "INCLINATION": 74.0247, "RA_OF_ASC_NODE": 270.3586, "ARG_OF_PERICENTER": 5.4926, "MEAN_ANOMALY": 12.2387, "EPHEMERIS_TYPE": 0, "CLASSIFICATION_TYPE": "U", "NORAD_CAT_ID": 47116, "ELEMENT_SET_NO": 999, "REV_AT_EPOCH": 59292, "BSTAR": 0.0024991708, "MEAN_MOTION_DOT": 0.00029033, "MEAN_MOTION_DDOT": 0}, "tle": {"line1": "1 47116U 93036BYJ 25332.11136721  .00029033  00000+0  24992-2 0  9991", "line2": "2 47116  74.0247 270.3586 0022417   5.4926  12.2387 14.97052334592926"}}, "geometry": {"type": "Point", "coordinates": [-148.00772651224943, -62.06214689693947]}}, {"type": "Feature", "properties": {"norad_id": 53093, "name": "COSMOS 2251 DEB", "group": "cosmos-2251-debris", "lat": 21.369814230732345, "lon": 118.63880192110945, "alt_km": 761.4201154590646, "timestamp": "2025-12-10T18:57:00.463695+00:00", "meta": {"OBJECT_NAME": "COSMOS 2251 DEB", "OBJECT_ID": "1993-036BYP", "EPOCH": "2025-12-10T08:13:53.568768", "MEAN_MOTION": 14.41858393, "ECCENTRICITY": 0.0019026, "INCLINATION": 74.0368, "RA_OF_ASC_NODE": 305.8968, "ARG_OF_PERICENTER": 23.5315, "MEAN_ANOMALY": 336.6707, "EPHEMERIS_TYPE": 0, "CLASSIFICATION_TYPE": "U", "NORAD_CAT_ID": 53093, "ELEMENT_SET_NO": 999, "REV_AT_EPOCH": 17691, "BSTAR": 0.0015107, "MEAN_MOTION_DOT": 4.929e-05, "MEAN_MOTION_DDOT": 0}, "tle": {"line1": "1 53093U 93036BYP 25344.34298112  .00004929  00000+0  15107-2 0  9998", "line2": "2 53093  74.0368 305.8968 0019026  23.5315 336.6707 14.41858393176918"}}, "geometry": {"type": "Point", "coordinates": [118.63880192110945, 21.369814230732345]}}]}